{
	 "status": 200
	  ,"message": ""
	  ,"total": 26,
	  "rows": {
		  "item":[
{"renk":"1","name":"彭水县郁山镇新中社区镇政府1号市政生活污水入河排污口","code":"500243104","areacode":"500243102002","address":"彭水县郁山镇新中社区镇政府1号","riverstyle":"入河排污口","lon":"108.2155556","lat":"29.38","scal":"2|规模以下","porttype":"2|生活污水排污口","channel":"2|暗管","WaterIntake":"郁江","WaterIntakeCode":"FDF00000000R"},
{"renk":"2","name":"南岸区鸡冠石镇南岸区排水公司鸡冠石污水处理厂旁混合废污水入河排污口","code":"500108013","areacode":"500108103001","address":"南岸区鸡冠石镇南岸区排水公司鸡","riverstyle":"入河排污口","lon":"106.4213194","lat":"29.45220833","scal":"1|规模以上","porttype":"3|混合污废水排污口","channel":"2|暗管","WaterIntake":"长江","WaterIntakeCode":"F0000000000S"},
{"renk":"3","name":"南岸区排水公司鸡冠石污水处理厂入河排污口","code":"500108011","areacode":"500108103001","address":"南岸区排水公司鸡冠石污水处理厂","riverstyle":"入河排污口","lon":"106.4250944","lat":"29.44818333","scal":"1|规模以上","porttype":"3|混合污废水排污口","channel":"2|暗管","WaterIntake":"长江","WaterIntakeCode":"F0000000000S"},
{"renk":"4","name":"南岸区南坪镇汇雅社区美堤雅城旁市政生活污水入河排污口","code":"500108080","areacode":"500108101009","address":"南岸区南坪镇汇雅社区美堤雅城旁","riverstyle":"入河排污口","lon":"106.34985","lat":"29.35098889","scal":"1|规模以上","porttype":"2|生活污水排污口","channel":"1|明渠","WaterIntake":"长江","WaterIntakeCode":"F0000000000S"},
{"renk":"5","name":"南岸区长生桥镇白沙村1号市政生活污水入河排污口","code":"500108094","areacode":"500108106211","address":"南岸区长生桥镇白沙村1号","riverstyle":"入河排污口","lon":"106.444925","lat":"29.37658611","scal":"2|规模以下","porttype":"2|生活污水排污口","channel":"2|暗管","WaterIntake":"苦溪河","WaterIntakeCode":"F412A000000R"},
{"renk":"6","name":"南岸区长生桥镇白沙村2号市政生活污水入河排污口","code":"500108093","areacode":"500108106211","address":"南岸区长生桥镇白沙村2号","riverstyle":"入河排污口","lon":"106.4379889","lat":"29.37939444","scal":"2|规模以下","porttype":"2|生活污水排污口","channel":"2|暗管","WaterIntake":"苦溪河","WaterIntakeCode":"F412A000000R"},
{"renk":"7","name":"南岸区长生桥镇凉风村施家沟社2号市政生活污水入河排污口","code":"500108091","areacode":"500108106212","address":"南岸区长生桥镇凉风村施家沟社2","riverstyle":"入河排污口","lon":"106.4355111","lat":"29.37849722","scal":"2|规模以下","porttype":"2|生活污水排污口","channel":"1|明渠","WaterIntake":"苦溪河","WaterIntakeCode":"F412A000000R"},
{"renk":"8","name":"南岸区经开区长江工业园VIVO厂旁混合废污水入河排污口","code":"500108086","areacode":"500108107210","address":"南岸区经开区长江工业园VIVO","riverstyle":"入河排污口","lon":"106.4839444","lat":"29.37785278","scal":"1|规模以上","porttype":"3|混合污废水排污口","channel":"1|明渠","WaterIntake":"苦溪河","WaterIntakeCode":"F412A000000R"},
{"renk":"9","name":"南岸区海棠溪街道海棠晓月社区汇景苑蓝岸停车场混合废污水入河排污口","code":"500108075","areacode":"500108004003","address":"南岸区海棠溪街道海棠晓月社区汇","riverstyle":"入河排污口","lon":"106.3762361","lat":"29.39553611","scal":"2|规模以下","porttype":"3|混合污废水排污口","channel":"2|暗管","WaterIntake":"长江","WaterIntakeCode":"F0000000000S"},
{"renk":"10","name":"南岸区经开区新塘科技园重庆莱美药业股份有限公司工业废水入河排污口","code":"500108071","areacode":"500108106004","address":"南岸区经开区新塘科技园重庆莱美","riverstyle":"入河排污口","lon":"106.4569028","lat":"29.33452778","scal":"2|规模以下","porttype":"1|工业废水排污口","channel":"1|明渠","WaterIntake":"苦溪河","WaterIntakeCode":"F412A000000R"},
{"renk":"11","name":"南岸区经开区新塘科技园机电路工业废水入河排污口","code":"500108067","areacode":"500108106004","address":"南岸区经开区新塘科技园机电路工","riverstyle":"入河排污口","lon":"106.4474444","lat":"29.32355278","scal":"2|规模以下","porttype":"1|工业废水排污口","channel":"1|明渠","WaterIntake":"苦溪河","WaterIntakeCode":"F412A000000R"},
{"renk":"12","name":"南岸区经开区新塘科技园重庆维协汽车修理服务有限公司工业废水入河排污口","code":"500108066","areacode":"500108106004","address":"南岸区经开区新塘科技园重庆维协","riverstyle":"入河排污口","lon":"106.4467083","lat":"29.32194722","scal":"2|规模以下","porttype":"1|工业废水排污口","channel":"2|暗管","WaterIntake":"苦溪河","WaterIntakeCode":"F412A000000R"},
{"renk":"13","name":"南岸区弹子石街道南滨路长嘉汇市政生活污水入河排污口","code":"500108052","areacode":"500108006004","address":"南岸区弹子石街道南滨路长嘉汇市","riverstyle":"入河排污口","lon":"106.3812028","lat":"29.43035","scal":"2|规模以下","porttype":"2|生活污水排污口","channel":"2|暗管","WaterIntake":"长江","WaterIntakeCode":"F0000000000S"},
{"renk":"14","name":"南岸区峡口镇西流村大桥组1号市政生活污水入河排污口","code":"500108036","areacode":"500108105200","address":"南岸区峡口镇西流村大桥组1号","riverstyle":"入河排污口","lon":"106.4638111","lat":"29.41301389","scal":"2|规模以下","porttype":"2|生活污水排污口","channel":"1|明渠","WaterIntake":"长江","WaterIntakeCode":"F0000000000S"},
{"renk":"15","name":"南岸区花园路街道丹龙路社区兰花路市政生活污水入河排污口","code":"500108034","areacode":"500108002013","address":"南岸区花园路街道丹龙路社区兰花","riverstyle":"入河排污口","lon":"106.3493056","lat":"29.35654444","scal":"1|规模以上","porttype":"2|生活污水排污口","channel":"2|暗管","WaterIntake":"长江","WaterIntakeCode":"F0000000000S"},
{"renk":"16","name":"南岸区花园路街道丹龙路社区美每家南滨上院旁2号市政生活污水入河排污口","code":"500108032","areacode":"500108002013","address":"南岸区花园路街道丹龙路社区美每","riverstyle":"入河排污口","lon":"106.3447111","lat":"29.35948333","scal":"2|规模以下","porttype":"2|生活污水排污口","channel":"2|暗管","WaterIntake":"长江","WaterIntakeCode":"F0000000000S"},
{"renk":"17","name":"南岸区花园路街道丹龙路社区美每家南滨上院旁1号市政生活污水入河排污口","code":"500108031","areacode":"500108002013","address":"南岸区花园路街道丹龙路社区美每","riverstyle":"入河排污口","lon":"106.3429972","lat":"29.36059444","scal":"2|规模以下","porttype":"2|生活污水排污口","channel":"2|暗管","WaterIntake":"长江","WaterIntakeCode":"F0000000000S"},
{"renk":"18","name":"南岸区花园路街道丹龙路社区哑巴洞码头混合废污水入河排污口","code":"500108030","areacode":"500108002013","address":"南岸区花园路街道丹龙路社区哑巴","riverstyle":"入河排污口","lon":"106.3383","lat":"29.36430556","scal":"1|规模以上","porttype":"3|混合污废水排污口","channel":"2|暗管","WaterIntake":"长江","WaterIntakeCode":"F0000000000S"},
{"renk":"19","name":"南岸区涂山镇仁济路社区2号市政生活污水入河排污口","code":"500108019","areacode":"500108102003","address":"南岸区涂山镇仁济路社区2号","riverstyle":"入河排污口","lon":"106.3904028","lat":"29.41793056","scal":"2|规模以下","porttype":"2|生活污水排污口","channel":"2|暗管","WaterIntake":"长江","WaterIntakeCode":"F0000000000S"},
{"renk":"20","name":"南岸区涂山镇仁济路社区1号市政生活污水入河排污口","code":"500108018","areacode":"500108102003","address":"南岸区涂山镇仁济路社区1号","riverstyle":"入河排污口","lon":"106.3905361","lat":"29.41394167","scal":"2|规模以下","porttype":"2|生活污水排污口","channel":"2|暗管","WaterIntake":"长江","WaterIntakeCode":"F0000000000S"},
{"renk":"21","name":"南岸区鸡冠石镇石龙村黄桷湾立交桥下市政生活污水入河排污口","code":"500108014","areacode":"500108103202","address":"南岸区鸡冠石镇石龙村黄桷湾立交","riverstyle":"入河排污口","lon":"106.4006361","lat":"29.43876667","scal":"1|规模以上","porttype":"2|生活污水排污口","channel":"1|明渠","WaterIntake":"长江","WaterIntakeCode":"F0000000000S"},
{"renk":"22","name":"南岸区鸡冠石镇污水处理厂上游围墙旁市政生活污水入河排污口","code":"500108010","areacode":"500108103001","address":"南岸区鸡冠石镇污水处理厂上游围","riverstyle":"入河排污口","lon":"106.4209917","lat":"29.45261667","scal":"2|规模以下","porttype":"2|生活污水排污口","channel":"1|明渠","WaterIntake":"长江","WaterIntakeCode":"F0000000000S"},
{"renk":"23","name":"南岸区迎龙镇G50S南岸收费站市政生活污水入河排污口","code":"500108006","areacode":"500108107208","address":"南岸区迎龙镇G50S南岸收费站","riverstyle":"入河排污口","lon":"106.5300639","lat":"29.39369444","scal":"2|规模以下","porttype":"2|生活污水排污口","channel":"2|暗管","WaterIntake":"鱼溪河","WaterIntakeCode":"F41B0000000R"},
{"renk":"24","name":"南岸区迎龙镇石梯子村石梯子社豆干厂混合废污水入河排污口","code":"500108004","areacode":"500108107207","address":"南岸区迎龙镇石梯子村石梯子社豆","riverstyle":"入河排污口","lon":"106.5355944","lat":"29.39734444","scal":"2|规模以下","porttype":"3|混合污废水排污口","channel":"1|明渠","WaterIntake":"鱼溪河","WaterIntakeCode":"F41B0000000R"},
{"renk":"25","name":"南岸区迎龙镇朝天门国际商贸城桥下市政生活污水入河排污口","code":"500108002","areacode":"500108107200","address":"南岸区迎龙镇朝天门国际商贸城桥","riverstyle":"入河排污口","lon":"106.5116472","lat":"29.37133333","scal":"2|规模以下","porttype":"2|生活污水排污口","channel":"2|暗管","WaterIntake":"鱼溪河","WaterIntakeCode":"F41B0000000R"},
{"renk":"26","name":"綦江区古南街道枣园社区綦江河生活污水入河排污口","code":"500110I13","areacode":"500110001010","address":"綦江区古南街道枣园社区綦江河生","riverstyle":"入河排污口","lon":"106.4618","lat":"28.85896944","scal":"2|规模以下","porttype":"2|生活污水排污口","channel":"5|其他","WaterIntake":"綦江","WaterIntakeCode":"F33D0000000R"}

]
	  }
}
